start=new Date('2022-05-17T00:00:00.000Z').valueOf();
sats=[{"MEAN_MOTION":"15.06394330","PERIOD":"95.593","ECCENTRICITY":"0.00020220","SEMIMAJOR_AXIS":"6925.366","MEAN_MOTION_DDOT":"0.0000000000000","ARG_OF_PERICENTER":"46.9029","MEAN_MOTION_DOT":"0.00000329","TIME_SYSTEM":"UTC","EPOCH":"2022-05-16T17:25:51.594240","EPHEMERIS_TYPE":"0","FILE":"3448872","MEAN_ELEMENT_THEORY":"SGP4","TLE_LINE1":"1 47559U 21009M   22136.72629160  .00000329  00000-0  41006-4 0  9998","APOAPSIS":"548.631","RA_OF_ASC_NODE":"134.8754","TLE_LINE2":"2 47559  53.0542 134.8754 0002022  46.9029 313.2129 15.06394330 71732","SITE":"AFETR","OBJECT_ID":"2021-009M","REF_FRAME":"TEME","RCS_SIZE":"LARGE","OBJECT_NAME":"STARLINK-1958","ELEMENT_SET_NO":"999","BSTAR":"0.00004100600000","CLASSIFICATION_TYPE":"U","REV_AT_EPOCH":"7173","PERIAPSIS":"545.831","COUNTRY_CODE":"US","OBJECT_TYPE":"PAYLOAD","MEAN_ANOMALY":"313.2129","DECAY_DATE":null,"CENTER_NAME":"EARTH","LAUNCH_DATE":"2021-02-04","GP_ID":"203707291","INCLINATION":"53.0542","NORAD_CAT_ID":"47559"},{"MEAN_MOTION_DOT":"0.00002719","EPOCH":"2022-05-16T09:17:33.985824","TIME_SYSTEM":"UTC","ARG_OF_PERICENTER":"47.9999","MEAN_MOTION_DDOT":"0.0000000000000","MEAN_MOTION":"15.06408111","PERIOD":"95.592","ECCENTRICITY":"0.00022850","SEMIMAJOR_AXIS":"6925.324","TLE_LINE1":"1 47560U 21009N   22136.38719891  .00002719  00000-0  20131-3 0  9993","APOAPSIS":"548.771","FILE":"3448591","EPHEMERIS_TYPE":"0","MEAN_ELEMENT_THEORY":"SGP4","REV_AT_EPOCH":"7107","COUNTRY_CODE":"US","OBJECT_TYPE":"PAYLOAD","PERIAPSIS":"545.606","ELEMENT_SET_NO":"999","BSTAR":"0.00020131000000","CLASSIFICATION_TYPE":"U","OBJECT_ID":"2021-009N","REF_FRAME":"TEME","RCS_SIZE":"LARGE","OBJECT_NAME":"STARLINK-1959","RA_OF_ASC_NODE":"136.3997","SITE":"AFETR","TLE_LINE2":"2 47560  53.0525 136.3997 0002285  47.9999 312.1184 15.06408111 71078","INCLINATION":"53.0525","GP_ID":"203697289","LAUNCH_DATE":"2021-02-04","NORAD_CAT_ID":"47560","CENTER_NAME":"EARTH","MEAN_ANOMALY":"312.1184","DECAY_DATE":null},{"RCS_SIZE":"LARGE","OBJECT_ID":"2021-009P","REF_FRAME":"TEME","OBJECT_NAME":"STARLINK-1960","SITE":"AFETR","TLE_LINE2":"2 47561  53.0548 156.1696 0001336  75.9326 284.1811 15.06402487 70806","RA_OF_ASC_NODE":"156.1696","REV_AT_EPOCH":"7080","COUNTRY_CODE":"US","OBJECT_TYPE":"PAYLOAD","PERIAPSIS":"546.281","ELEMENT_SET_NO":"999","BSTAR":"0.00015833000000","CLASSIFICATION_TYPE":"U","DECAY_DATE":null,"MEAN_ANOMALY":"284.1811","GP_ID":"203697539","INCLINATION":"53.0548","LAUNCH_DATE":"2021-02-04","NORAD_CAT_ID":"47561","CENTER_NAME":"EARTH","MEAN_MOTION":"15.06402487","SEMIMAJOR_AXIS":"6925.341","ECCENTRICITY":"0.00013360","PERIOD":"95.592","MEAN_MOTION_DOT":"0.00002078","EPOCH":"2022-05-16T10:34:30.189216","TIME_SYSTEM":"UTC","MEAN_MOTION_DDOT":"0.0000000000000","ARG_OF_PERICENTER":"75.9326","APOAPSIS":"548.131","TLE_LINE1":"1 47561U 21009P   22136.44062719  .00002078  00000-0  15833-3 0  9992","FILE":"3448591","EPHEMERIS_TYPE":"0","MEAN_ELEMENT_THEORY":"SGP4"},{"NORAD_CAT_ID":"47562","INCLINATION":"53.0536","GP_ID":"203697791","LAUNCH_DATE":"2021-02-04","CENTER_NAME":"EARTH","DECAY_DATE":null,"MEAN_ANOMALY":"326.1961","COUNTRY_CODE":"US","OBJECT_TYPE":"PAYLOAD","PERIAPSIS":"545.542","REV_AT_EPOCH":"7081","CLASSIFICATION_TYPE":"U","BSTAR":"0.00005151400000","ELEMENT_SET_NO":"999","OBJECT_NAME":"STARLINK-1961","RCS_SIZE":"LARGE","REF_FRAME":"TEME","OBJECT_ID":"2021-009Q","TLE_LINE2":"2 47562  53.0536 155.7946 0002412  33.9181 326.1961 15.06400450 70818","SITE":"AFETR","RA_OF_ASC_NODE":"155.7946","APOAPSIS":"548.883","TLE_LINE1":"1 47562U 21009Q   22136.52172265  .00000486  00000-0  51514-4 0  9998","EPHEMERIS_TYPE":"0","FILE":"3448591","MEAN_ELEMENT_THEORY":"SGP4","EPOCH":"2022-05-16T12:31:16.836960","TIME_SYSTEM":"UTC","MEAN_MOTION_DOT":"0.00000486","MEAN_MOTION_DDOT":"0.0000000000000","ARG_OF_PERICENTER":"33.9181","SEMIMAJOR_AXIS":"6925.347","ECCENTRICITY":"0.00024120","PERIOD":"95.592","MEAN_MOTION":"15.06400450"},{"MEAN_MOTION_DDOT":"0.0000000000000","ARG_OF_PERICENTER":"40.7105","MEAN_MOTION_DOT":"-0.00000971","EPOCH":"2022-05-16T13:03:07.950528","TIME_SYSTEM":"UTC","MEAN_MOTION":"15.06393550","SEMIMAJOR_AXIS":"6925.368","ECCENTRICITY":"0.00020320","PERIOD":"95.593","FILE":"3448591","MEAN_ELEMENT_THEORY":"SGP4","EPHEMERIS_TYPE":"0","APOAPSIS":"548.641","TLE_LINE1":"1 47563U 21009R   22136.54384202 -.00000971  00000-0 -46307-4 0  9992","BSTAR":"-0.00004630700000","ELEMENT_SET_NO":"999","CLASSIFICATION_TYPE":"U","REV_AT_EPOCH":"7081","COUNTRY_CODE":"US","PERIAPSIS":"545.826","OBJECT_TYPE":"PAYLOAD","SITE":"AFETR","TLE_LINE2":"2 47563  53.0537 155.6990 0002032  40.7105 319.4035 15.06393550 70817","RA_OF_ASC_NODE":"155.6990","RCS_SIZE":"LARGE","REF_FRAME":"TEME","OBJECT_ID":"2021-009R","OBJECT_NAME":"STARLINK-1962","CENTER_NAME":"EARTH","GP_ID":"203698530","LAUNCH_DATE":"2021-02-04","INCLINATION":"53.0537","NORAD_CAT_ID":"47563","DECAY_DATE":null,"MEAN_ANOMALY":"319.4035"},{"RCS_SIZE":"LARGE","OBJECT_ID":"2021-009S","REF_FRAME":"TEME","OBJECT_NAME":"STARLINK-1963","TLE_LINE2":"2 47564  53.0523 146.2960 0002043  47.5916 312.5246 15.06395456 70931","SITE":"AFETR","RA_OF_ASC_NODE":"146.2960","REV_AT_EPOCH":"7093","COUNTRY_CODE":"US","PERIAPSIS":"545.813","OBJECT_TYPE":"PAYLOAD","BSTAR":"0.00022995000000","ELEMENT_SET_NO":"999","CLASSIFICATION_TYPE":"U","DECAY_DATE":null,"MEAN_ANOMALY":"312.5246","INCLINATION":"53.0523","GP_ID":"203696790","LAUNCH_DATE":"2021-02-04","NORAD_CAT_ID":"47564","CENTER_NAME":"EARTH","MEAN_MOTION":"15.06395456","SEMIMAJOR_AXIS":"6925.362","ECCENTRICITY":"0.00020430","PERIOD":"95.592","MEAN_MOTION_DOT":"0.00003145","EPOCH":"2022-05-16T09:53:22.009920","TIME_SYSTEM":"UTC","MEAN_MOTION_DDOT":"0.0000000000000","ARG_OF_PERICENTER":"47.5916","APOAPSIS":"548.642","TLE_LINE1":"1 47564U 21009S   22136.41206030  .00003145  00000-0  22995-3 0  9991","MEAN_ELEMENT_THEORY":"SGP4","FILE":"3448591","EPHEMERIS_TYPE":"0"},{"EPHEMERIS_TYPE":"0","FILE":"3448591","MEAN_ELEMENT_THEORY":"SGP4","APOAPSIS":"548.738","TLE_LINE1":"1 47565U 21009T   22136.34203268  .00002113  00000-0  16078-3 0  9993","MEAN_MOTION":"15.06393798","SEMIMAJOR_AXIS":"6925.368","ECCENTRICITY":"0.00021740","PERIOD":"95.593","ARG_OF_PERICENTER":"43.8252","MEAN_MOTION_DDOT":"0.0000000000000","MEAN_MOTION_DOT":"0.00002113","TIME_SYSTEM":"UTC","EPOCH":"2022-05-16T08:12:31.623552","DECAY_DATE":null,"MEAN_ANOMALY":"316.2909","CENTER_NAME":"EARTH","INCLINATION":"53.0533","GP_ID":"203697040","LAUNCH_DATE":"2021-02-04","NORAD_CAT_ID":"47565","SITE":"AFETR","TLE_LINE2":"2 47565  53.0533 146.6063 0002174  43.8252 316.2909 15.06393798 70921","RA_OF_ASC_NODE":"146.6063","RCS_SIZE":"LARGE","REF_FRAME":"TEME","OBJECT_ID":"2021-009T","OBJECT_NAME":"STARLINK-1964","ELEMENT_SET_NO":"999","BSTAR":"0.00016078000000","CLASSIFICATION_TYPE":"U","REV_AT_EPOCH":"7092","OBJECT_TYPE":"PAYLOAD","COUNTRY_CODE":"US","PERIAPSIS":"545.727"},{"MEAN_ANOMALY":"313.3952","DECAY_DATE":null,"NORAD_CAT_ID":"47566","LAUNCH_DATE":"2021-02-04","GP_ID":"203698291","INCLINATION":"53.0554","CENTER_NAME":"EARTH","OBJECT_NAME":"STARLINK-1965","REF_FRAME":"TEME","OBJECT_ID":"2021-009U","RCS_SIZE":"LARGE","RA_OF_ASC_NODE":"136.0412","SITE":"AFETR","TLE_LINE2":"2 47566  53.0554 136.0412 0002004  46.7204 313.3952 15.06395512 71087","PERIAPSIS":"545.839","COUNTRY_CODE":"US","OBJECT_TYPE":"PAYLOAD","REV_AT_EPOCH":"7108","CLASSIFICATION_TYPE":"U","ELEMENT_SET_NO":"999","BSTAR":"0.00005151900000","TLE_LINE1":"1 47566U 21009U   22136.46827042  .00000486  00000-0  51519-4 0  9990","APOAPSIS":"548.615","EPHEMERIS_TYPE":"0","FILE":"3448591","MEAN_ELEMENT_THEORY":"SGP4","ECCENTRICITY":"0.00020040","PERIOD":"95.592","SEMIMAJOR_AXIS":"6925.362","MEAN_MOTION":"15.06395512","TIME_SYSTEM":"UTC","EPOCH":"2022-05-16T11:14:18.564288","MEAN_MOTION_DOT":"0.00000486","ARG_OF_PERICENTER":"46.7204","MEAN_MOTION_DDOT":"0.0000000000000"},{"TLE_LINE1":"1 47567U 21009V   22136.83686588  .00002311  00000-0  17398-3 0  9995","APOAPSIS":"548.550","FILE":"3448873","MEAN_ELEMENT_THEORY":"SGP4","EPHEMERIS_TYPE":"0","MEAN_MOTION_DOT":"0.00002311","TIME_SYSTEM":"UTC","EPOCH":"2022-05-16T20:05:05.212032","ARG_OF_PERICENTER":"51.4779","MEAN_MOTION_DDOT":"0.0000000000000","MEAN_MOTION":"15.06399694","PERIOD":"95.592","ECCENTRICITY":"0.00019280","SEMIMAJOR_AXIS":"6925.349","GP_ID":"203707830","INCLINATION":"53.0534","LAUNCH_DATE":"2021-02-04","NORAD_CAT_ID":"47567","CENTER_NAME":"EARTH","MEAN_ANOMALY":"308.6383","DECAY_DATE":null,"REV_AT_EPOCH":"7117","COUNTRY_CODE":"US","OBJECT_TYPE":"PAYLOAD","PERIAPSIS":"545.879","ELEMENT_SET_NO":"999","BSTAR":"0.00017398000000","CLASSIFICATION_TYPE":"U","REF_FRAME":"TEME","OBJECT_ID":"2021-009V","RCS_SIZE":"LARGE","OBJECT_NAME":"STARLINK-1966","RA_OF_ASC_NODE":"174.3883","TLE_LINE2":"2 47567  53.0534 174.3883 0001928  51.4779 308.6383 15.06399694 71177","SITE":"AFETR"},{"TLE_LINE1":"1 47568U 21009W   22136.53093117  .00001864  00000-0  14401-3 0  9997","APOAPSIS":"548.556","FILE":"3448591","EPHEMERIS_TYPE":"0","MEAN_ELEMENT_THEORY":"SGP4","MEAN_MOTION_DOT":"0.00001864","EPOCH":"2022-05-16T12:44:32.453088","TIME_SYSTEM":"UTC","MEAN_MOTION_DDOT":"0.0000000000000","ARG_OF_PERICENTER":"42.6621","MEAN_MOTION":"15.06395071","ECCENTRICITY":"0.00019160","PERIOD":"95.592","SEMIMAJOR_AXIS":"6925.364","LAUNCH_DATE":"2021-02-04","GP_ID":"203697290","INCLINATION":"53.0540","NORAD_CAT_ID":"47568","CENTER_NAME":"EARTH","MEAN_ANOMALY":"317.4516","DECAY_DATE":null,"REV_AT_EPOCH":"7053","COUNTRY_CODE":"US","PERIAPSIS":"545.902","OBJECT_TYPE":"PAYLOAD","BSTAR":"0.00014401000000","ELEMENT_SET_NO":"999","CLASSIFICATION_TYPE":"U","OBJECT_ID":"2021-009W","REF_FRAME":"TEME","RCS_SIZE":"LARGE","OBJECT_NAME":"STARLINK-1967","RA_OF_ASC_NODE":"175.7518","SITE":"AFETR","TLE_LINE2":"2 47568  53.0540 175.7518 0001916  42.6621 317.4516 15.06395071 70530"}];
